UNKNOWN                 
1 87211U          20044.85828882  .00000235  00000+0  10429-3 0  9996
2 87211  99.0649 276.7969 0067710 272.1669 146.1584 14.31374258402292
UNKNOWN                 
1 87213U          20044.02302291  .00001673  00000+0  24118-3 0  9995
2 87213  99.0252 122.9055 0065912 306.9164  52.6015 14.76522364246186
UNKNOWN                 
1 87214U          20045.35151733  .00000722  00000+0  75156-3 0  9998
2 87214 100.3111 185.1940 0077221 293.5589  65.7461 13.78253595306645
UNKNOWN                 
1 87222U          20044.25779251  .00004366  00000-0  30734-3 0  9998
2 87222  98.9886 219.8035 0069040 228.9080 305.1402 15.03819619427716
UNKNOWN                 
1 87228U          20042.08199142  .00001630  00000-0  62069-3 0  9995
2 87228  98.9246 135.1515 0046019 247.5137 112.1169 14.31761294300144
UNKNOWN                 
1 87235U          20045.14308811  .00000640  00000+0  25763-3 0  9997
2 87235  98.8962 165.5718 0154291 260.6376  97.7330 14.25449548281628
UNKNOWN                 
1 87237U          20045.25272084  .00000095  00000+0  11028-3 0  9996
2 87237  99.4711  53.7078 0105063 244.0806 178.7252 13.89824220315953
UNKNOWN                 
1 87239U          20044.70917952  .00000912  00000+0  38618-3 0  9999
2 87239  82.8852  31.4101 0032607  80.6189 279.8679 14.24250409323180
UNKNOWN                 
1 87245U          20044.51726986  .00000187  00000-0  76554-4 0  9997
2 87245  65.6617 196.1130 0517260  61.0190 359.0631 13.92762071316216
UNKNOWN                 
1 87256U          20044.39960517  .00000290  00000+0  20244-3 0  9993
2 87256  98.9178 117.9261 0044979 258.5136 101.0980 14.05951179284300
UNKNOWN                 
1 87271U          20045.25796578  .00000843  00000+0  23214-3 0  9994
2 87271  65.7767 344.2809 0555640  59.7198 305.7654 13.87454431314894
UNKNOWN                 
1 87280U          20044.55890550  .00000014  00000-0  15451-3 0  9996
2 87280  64.6169  90.6279 0100113  32.9238 327.7982 13.46778432246976
UNKNOWN                 
1 87293U          20045.59136283  .00000343  00000+0  11521-3 0  9999
2 87293  65.9086 237.4681 0521355  49.1722 315.3357 13.92003501316159
UNKNOWN                 
1 87300U          20044.28663240  .00000310  00000-0  27996-3 0  9999
2 87300 100.0580 167.2457 0034536 164.3244 195.8990 13.92374636316286
UNKNOWN                 
1 87304U          20043.93648573  .00000122  00000+0  26982-4 0  9991
2 87304  74.0201 135.3218 0022296 283.5647  76.3039 14.67934537333496
UNKNOWN                 
1 87305U          20043.29340281  .00000984  00000+0  20232-3 0  9993
2 87305  73.9982   4.9897 0037250 307.8991  51.8808 14.61633112161730
UNKNOWN                 
1 87313U          20043.54795558  .00000021  00000-0  72012-4 0  9998
2 87313  65.8425 108.8034 0218951 306.5718  51.5376 13.88526193315501
UNKNOWN                 
1 87320U          20044.76829083  .00000343  00000+0  27114-3 0  9990
2 87320  66.5975  74.1266 0455834 318.3551  38.3616 13.61635371303336
UNKNOWN                 
1 87328U          20044.98431786  .00000863  00000+0  10694-3 0  9993
2 87328  65.7597 258.9087 0259716 321.3343  36.9416 14.68080860332184
UNKNOWN                 
1 87331U          20045.48801599  .00003956  00000+0  16088-3 0  9995
2 87331  66.9057  71.4518 0019367 340.0502  19.9886 15.25676796343772
UNKNOWN                 
1 87333U          20044.63572417 -.00000010  00000+0  58895-4 0  9999
2 87333  66.5381  22.6000 0022056 150.7180 209.5135 13.85819389315236
UNKNOWN                 
1 87334U          20045.43209017  .00000521  00000+0  71105-3 0  9996
2 87334  89.9851 271.7564 0064996 175.8881 184.2821 13.56859402 95105
UNKNOWN                 
1 87335U          20045.60835980  .00002311  00000+0  31450-2 0  9997
2 87335  89.9746 271.2831 0083089 159.8327 200.6143 13.57427626 95157
UNKNOWN                 
1 87342U          20045.56682519  .00003758  00000+0  60229-1 0  9999
2 87342 102.6640 268.2522 0752031  34.1639 330.5488 11.26559439255521
UNKNOWN                 
1 87350U          20044.54760164  .00000381  00000-0  13503-3 0  9993
2 87350  98.0859 301.0771 0255432  57.7803 304.7866 14.22766368323124
UNKNOWN                 
1 87359U          20045.40734931  .00000129  00000+0  23354-3 0  9995
2 87359  65.8491 188.8535 0141246 215.9113 143.2390 13.66663252311990
UNKNOWN                 
1 87382U          20044.88322404  .00009794  00000+0  18551-2 0  9999
2 87382  70.9695 125.6730 0030246 244.6287 115.1729 14.64206098243159
UNKNOWN                 
1 87397U          20045.25124219  .00002070  00000+0  40011-3 0  9998
2 87397  81.2390 238.3110 0012276 318.7871  41.2401 14.63077278244412
UNKNOWN                 
1 87405U          20043.90813151  .00001092  00000-0  89120-3 0  9996
2 87405  82.7586 283.4679 0055705 295.9803  63.5628 13.88218820315098
UNKNOWN                 
1 87415U          20045.32117087  .00000924  00000+0  87572-3 0  9991
2 87415  65.3561 158.5312 0012314  86.5613 273.6860 13.86058673314690
UNKNOWN                 
1 87416U          20043.49316725  .00001219  00000-0  51287-3 0  9991
2 87416  82.8370 319.3991 0015948 140.1796 220.0561 14.25037379304527
UNKNOWN                 
1 87423U          20045.29549249  .00002830  00000+0  33676-3 0  9999
2 87423  98.8240 353.9708 0057155 238.4808 121.0812 14.84196319243682
UNKNOWN                 
1 87426U          20045.16016383  .00000391  00000+0  24936-3 0  9995
2 87426  65.8091 232.2170 0086931 321.9061 148.2943 14.12746497320825
UNKNOWN                 
1 87433U          20044.28841912  .00000496  00000-0  10659-2 0  9992
2 87433 100.2828 169.3842 0043966 300.1768  59.5004 13.35241269147971
UNKNOWN                 
1 87442U          20044.94672067  .00085267  00000+0  91495-2 0  9993
2 87442  62.0508 197.7940 0382340 121.3684 242.5385 14.46893642139324
UNKNOWN                 
1 87448U          20044.64571366  .00000671  00000+0  64763-3 0  9991
2 87448 100.4232 341.7221 0068619 279.4232  79.9166 13.83363475314306
UNKNOWN                 
1 87455U          20044.45505315  .00006968  00000-0  34841-3 0  9999
2 87455  63.3877 328.6859 3002577 249.5906  76.0253  9.34712370207070
UNKNOWN                 
1 87456U          20044.96092279  .00000199  00000+0  59088-4 0  9996
2 87456  65.7910 169.1868 0625145 354.5270   4.9168 13.85524806314770
UNKNOWN                 
1 87468U          20043.56974675  .00000917  00000-0  11990-3 0  9991
2 87468  74.0160 154.8430 0067278 100.0975 260.7801 14.80516132163724
UNKNOWN                 
1 87491U          20043.93300522  .00001503  00000+0  38847-3 0  9993
2 87491  98.6670  91.5851 0074422 188.2106 171.7875 14.49836334272496
UNKNOWN                 
1 87501U          20045.51102171  .00002976  00000+0  97221-3 0  9997
2 87501  74.0351 229.9572 0026341 103.4696 256.9396 14.38800079161080
UNKNOWN                 
1 87517U          20044.42820691  .00000137  00000-0  73083-4 0  9996
2 87517  65.8285 286.4284 0739809 238.6478 302.3306 13.45147075305464
UNKNOWN                 
1 87518U          20043.45127858  .00031749  00000-0  85280-3 0  9998
2 87518  65.7921 115.1890 0017129 285.1255  74.7994 15.37649034928487
UNKNOWN                 
1 87520U          20044.96986432  .00000998  00000+0  23831-2 0  9993
2 87520 101.6317  44.8572 0187060 287.2261  70.8453 13.20132614298899
UNKNOWN                 
1 87521U          20044.48400957  .00000467  00000+0  10263-3 0  9991
2 87521  63.3725 213.6630 2328644 312.1422  30.3304 10.45443727187619
UNKNOWN                 
1 87541U          20044.21285508 -.00000137  00000-0 -18488-3 0  9991
2 87541  99.9233 313.9148 0060755 350.5284 168.5745 13.34820909297868
UNKNOWN                 
1 87553U          20045.42287671  .00000209  00000+0  10679-3 0  9992
2 87553  65.6752  36.6426 0731601  86.8349 281.6071 13.41432512304989
UNKNOWN                 
1 87557U          20045.05737283  .00001016  00000+0  29577-2 0  9997
2 87557 101.8067 354.2821 0093972 324.6641  34.8260 13.11211515284781
UNKNOWN                 
1 87561U          20043.46807888 -.00000045  00000+0  30193-5 0  9995
2 87561 102.2657 110.8901 0176058 213.5796 157.9986 12.32219058280066
UNKNOWN                 
1 87565U          20045.34121124 -.00000295  00000+0 -14301-3 0  9999
2 87565  99.9551 181.4116 0183903 137.1089 224.4583 14.00264128318217
UNKNOWN                 
1 87569U          20045.46678508 -.00000045  00000+0  91083-5 0  9995
2 87569 101.7968 135.8642 0056272 130.8349 291.8325 12.68464644288618
UNKNOWN                 
1 87574U          20045.41402729  .00006440  00000+0  10319-2 0  9990
2 87574  74.0000 200.5555 0067437  32.2156 328.3106 14.70390918219177
UNKNOWN                 
1 87587U          20044.39822385  .00000013  00000+0  12890-4 0  9992
2 87587  74.0236  74.9567 0022240 267.1726  92.6882 14.38811014327477
UNKNOWN                 
1 87590U          20042.89136751  .00000167  00000-0  12569-3 0  9997
2 87590  99.0407  78.0487 0028079 147.1107 339.9477 14.07429607855315
UNKNOWN                 
1 87591U          20044.67626499  .00000727  00000+0  36028-3 0  9996
2 87591  81.2221 180.6945 0031916 175.3435 184.8043 14.16032672271313
UNKNOWN                 
1 87594U          20045.50904247 -.00000126  00000+0 -57327-4 0  9993
2 87594  63.1316  86.0872 0088618  85.3757 275.7381 13.44775554305930
UNKNOWN                 
1 87616U          20045.32381706  .00000214  00000+0  90337-3 0  9990
2 87616  66.0403   3.3944 0649102 323.5595 200.6168 12.44535494271189
UNKNOWN                 
1 87624U          20044.69583952  .00000206  00000+0  58522-4 0  9997
2 87624  98.7772 212.9145 0129910 278.9836  79.6673 14.52171053270262
UNKNOWN                 
1 87632U          20045.57428736  .00000013  00000+0  20127-3 0  9997
2 87632  86.1465 252.1194 1857482  64.7982 313.3686  8.78003511145444
UNKNOWN                 
1 87642U          20044.81949657  .00001805  00000+0  12206-3 0  9993
2 87642  62.2281 176.6402 0193685  31.6498 329.6067 14.96857055331740
